FOX-1D (AO-92)          
1 43137U 18004AC  23270.18481482  .00084119  00000+0  12121-2 0  9992
2 43137  97.3190 351.0608 0004507 128.8676 231.2982 15.55723622318115
DIWATA-2B               
1 43678U 18084H   23270.55411127  .00003449  00000+0  33047-3 0  9998
2 43678  98.0376  56.7008 0009571 175.3738 184.7571 14.93817798267549
ES'HAIL 2               
1 43700U 18090A   23270.49227340  .00000130  00000+0  00000+0 0  9999
2 43700   0.0187 160.2158 0001278  33.6921  15.1331  1.00272576 17717
FOX-1CLIFF (AO-95)      
1 43770U 18099N   23270.12809435  .00009693  00000+0  76017-3 0  9994
2 43770  97.5770 328.9952 0015101 165.7399 194.4254 15.01072240262892
ITASAT 1                
1 43786U 18099AE  23270.42646239  .00007411  00000+0  59087-3 0  9999
2 43786  97.5605 330.2411 0018939 146.9638 213.2773 15.00468297262976
JY1SAT (JO-97)          
1 43803U 18099AX  23270.41260056  .00008577  00000+0  65500-3 0  9998
2 43803  97.5617 330.4401 0013304 116.0249 244.2348 15.02140828263036
UWE-4                   
1 43880U 18111E   23270.49321447  .00010654  00000+0  78048-3 0  9998
2 43880  97.6222 174.1215 0017966 181.3306 178.7875 15.03598477259733
NEXUS (FO-99)           
1 43937U 19003F   23270.37424980  .00213346  00000+0  15965-2 0  9996
2 43937  97.0730 297.4007 0006159 228.2439 131.8299 15.72016997261980
JAISAT-1                
1 44419U 19038F   23270.51752154  .00042609  00000+0  12059-2 0  9996
2 44419  97.6805 256.0946 0009797 306.8446  53.1898 15.36129458234214
DUCHIFAT-3              
1 44854U 19089C   23270.49922191  .00014001  00000+0  89172-3 0  9998
2 44854  36.9604 199.0021 0005470  73.6864 286.4482 15.08148531208344
TIANYAN 01              
1 44881U 19093C   23270.47318435  .00001807  00000+0  22956-3 0  9998
2 44881  97.8553 347.1654 0016083 103.6098 256.6908 14.82793572203952
RS-44 & BREEZE-KM R/B   
1 44909U 19096E   23270.48379567  .00000038  00000+0  11632-3 0  9990
2 44909  82.5164 279.9708 0216505 308.0036  50.1688 12.79722867175243
BY70-2                  
1 45857U 20042B   23270.51582384  .00034262  00000+0  31181-2 0  9999
2 45857  97.9211 351.0530 0007697  36.6935 323.4811 14.95068504174802
SALSAT                  
1 46495U 20068K   23270.42388726  .00007878  00000+0  50356-3 0  9999
2 46495  97.7778 219.6251 0016580 128.1785 232.0940 15.08795989164487
RADFXSAT-2 (AO-109)     
1 47311U 21002C   23270.44157178  .00048924  00000+0  10062-2 0  9999
2 47311  60.6800  23.6981 0015487 356.5651   3.5338 15.45514590150055
UVSQ-SAT                
1 47438U 21006AB  23270.38871802  .00026372  00000+0  96551-3 0  9994
2 47438  97.3735 326.2017 0010415  84.6980 275.5448 15.27958330148235
LEDSAT                  
1 49069U 21073D   23270.42485589  .00015446  00000+0  79760-3 0  9991
2 49069  97.4736 339.6495 0024246 124.9669 235.3845 15.16136992116382
XW-3 (CAS-9)            
1 50466U 21131B   23270.52244456  .00001046  00000+0  35284-3 0  9990
2 50466  98.5470 351.7345 0004267 179.2105 180.9090 14.39071617 92072
TEVEL-3                 
1 50988U 22002E   23270.45539911  .00033707  00000+0  11656-2 0  9997
2 50988  97.4238 336.9842 0006331 222.4587 137.6164 15.29809822 94370
TEVEL-8                 
1 50989U 22002F   23270.47890157  .00034805  00000+0  12061-2 0  9993
2 50989  97.4253 337.0778 0006384 222.1622 137.9128 15.29734334 94371
TEVEL-5                 
1 50998U 22002Q   23270.46930545  .00036866  00000+0  12332-2 0  9998
2 50998  97.4232 337.5171 0007475 217.7731 142.2986 15.30861119 94413
TEVEL-6                 
1 50999U 22002R   23270.46794261  .00036761  00000+0  12299-2 0  9998
2 50999  97.4230 337.5080 0007511 217.4448 142.6270 15.30855454 94419
TEVEL-1                 
1 51013U 22002AF  23270.46869244  .00035000  00000+0  12121-2 0  9999
2 51013  97.4229 336.9219 0006288 222.5098 137.5656 15.29753301 94372
TEVEL-7                 
1 51062U 22002CG  23270.47831407  .00035293  00000+0  12218-2 0  9995
2 51062  97.4248 337.0479 0006368 221.7301 138.3454 15.29763611 94374
TEVEL-4                 
1 51063U 22002CH  23270.48866438  .00034688  00000+0  12038-2 0  9996
2 51063  97.4245 337.0294 0006365 221.3207 138.7552 15.29687332 94373
TEVEL-2                 
1 51069U 22002CP  23270.45679522  .00033800  00000+0  11685-2 0  9997
2 51069  97.4236 336.9542 0006309 222.3973 137.6781 15.29817992 94371
GREENCUBE               
1 53106U 22080B   23269.37565288 -.00000003  00000+0  00000+0 0  9995
2 53106  70.1406 284.5561 0008473 167.7073 192.3795  6.42557266 28255
CYCLOPS (RS29S)         
1 53373U 22096D   23270.49574846  .00061023  00000+0  11869-2 0  9999
2 53373  97.4008 178.4574 0004060 100.5637 259.6070 15.47381287 63463
MONITOR-1 (RS32S)       
1 53374U 22096E   23270.48040132  .00059259  00000+0  12193-2 0  9994
2 53374  97.3977 178.0938 0004545 103.8509 256.3246 15.45745775 63441
KUZBASS-300 (RS34S)     
1 53375U 22096F   23270.54499094  .00045079  00000+0  10506-2 0  9998
2 53375  97.4018 177.4883 0003947 102.5859 257.5829 15.42114993 63405
UTMN (RS23S)            
1 53376U 22096G   23270.52440993  .00046249  00000+0  10476-2 0  9997
2 53376  97.4013 177.6546 0003905 102.2672 257.9013 15.42963392 63418
MIET-AIS (RS28S)        
1 53377U 22096H   23270.53611053  .00042365  00000+0  10222-2 0  9990
2 53377  97.4030 177.3678 0003852 100.2659 259.9021 15.41081710 63397
KAI-1 (RS26S)           
1 53378U 22096J   23270.49816385  .00033548  00000+0  87197-3 0  9990
2 53378  97.4048 176.8467 0003614  98.0886 262.0770 15.38862604 63356
ISOI (RS19S)            
1 53381U 22096M   23270.48844350  .00039424  00000+0  92188-3 0  9991
2 53381  97.4024 177.7046 0005488  73.5394 286.6456 15.42036658 63417
CUBESX-HSE-2 (RS21S)    
1 53383U 22096P   23270.54719695  .00044763  00000+0  10097-2 0  9993
2 53383  97.4018 177.9419 0005936  74.1037 286.0864 15.43085771 63437
SIREN (RS30S)           
1 53384U 22096Q   23270.51219700  .00038670  00000+0  94827-3 0  9997
2 53384  97.4034 177.4129 0005821  70.8727 289.3149 15.40601826 63390
GEOSCAN-EDELVEIS (RS20S)
1 53385U 22096R   23270.54647213  .00073575  00000+0  13322-2 0  9998
2 53385  97.3991 179.2656 0006240  66.4522 293.7384 15.49377201 63551
VIZARD (RS33S)          
1 53386U 22096S   23270.48869511  .00122141  00000+0  16325-2 0  9999
2 53386  97.3989 180.7248 0006922  76.8488 283.3539 15.57606009 63632
CAS-5A (FO-118)         
1 54684U 22167C   23270.50001172  .00017974  00000+0  91649-3 0  9994
2 54684  97.5752  47.6405 0012391 345.6069  14.4809 15.16743929 44178
STRATOSAT-TK 1 (RS52S)  
1 57167U 23091B   23270.50021668  .00013169  00000+0  93654-3 0  9992
2 57167  97.6541 320.3257 0016630 300.5446  59.4138 15.04678763 13810
UMKA 1 (RS40S)          
1 57172U 23091G   23270.44388152  .00005709  00000+0  41534-3 0  9996
2 57172  97.6537 320.2474 0016732 300.7806  59.1773 15.04094167 13807
CUBESX-HSE 3 (RS42S)    
1 57178U 23091N   23270.51528494  .00007513  00000+0  54395-3 0  9999
2 57178  97.6579 320.3537 0017429 294.9181  65.0233 15.04159469 13819
MONITOR-4 (RS57S)       
1 57182U 23091S   23270.45345508  .00007082  00000+0  51456-3 0  9996
2 57182  97.6574 320.2690 0017450 296.3771  63.5663 15.04045721 13807
MONITOR-2 (RS39S)       
1 57184U 23091U   23270.47132682  .00005565  00000+0  39912-3 0  9994
2 57184  97.6589 320.3998 0013198 290.2494  69.7313 15.04687365 13814
SVYATOBOR 1 (RS60S)     
1 57187U 23091X   23270.52148191  .00006576  00000+0  46584-3 0  9991
2 57187  97.6583 320.4883 0013008 287.8873  72.0934 15.05079662 13821
VIZARD-METEO (RS38S)    
1 57189U 23091Z   23270.43246546  .00009422  00000+0  65714-3 0  9995
2 57189  97.6569 320.4420 0012574 285.9276  74.0565 15.05544654 13816
NANOZOND 1 (RS49S)      
1 57190U 23091AA  23270.41375793  .00012237  00000+0  84060-3 0  9995
2 57190  97.6558 320.4316 0010923 293.2438  66.7638 15.06059230 13819
POLYTECH-UNIVERSE 3 (R*)
1 57191U 23091AB  23270.51793617  .00004813  00000+0  34696-3 0  9997
2 57191  97.6543 320.3028 0019371 307.7519  52.1951 15.04478863 13812
UTMN 2 (RS27S)          
1 57203U 23091AP  23270.43826411  .00008600  00000+0  60242-3 0  9995
2 57203  97.6565 320.4344 0012834 286.1578  73.8236 15.05409423 13817
ARCCUBE 1 (RS25S)       
1 57205U 23091AR  23270.48026827  .00012518  00000+0  85774-3 0  9995
2 57205  97.6539 320.4777 0011271 294.9902  65.0153 15.06143546 13826
KUZGTU 1 (RS47S)        
1 57217U 23091AV  23270.51310538  .00007212  00000+0  52215-3 0  9996
2 57217  97.6552 320.3272 0017416 296.3391  63.6045 15.04174881 13815
